ONEWEB-0427             
1 50499U 21132AG  25323.55333551  .00000057  00000+0  11140-3 0  9992
2 50499  87.9210  17.0690 0001575  98.0490 262.0821 13.18685086193984
ONEWEB-0429             
1 50500U 21132AH  25323.23662000 -.00000022  00000+0 -89333-4 0  9998
2 50500  87.9212  17.1634 0001968  98.5205 261.6150 13.18688775193914
ONEWEB-0430             
1 50501U 21132AJ  25323.60446040  .00000042  00000+0  73380-4 0  9999
2 50501  87.9211  17.0852 0001963  91.4419 268.6938 13.18684616194001
ONEWEB-0432             
1 50502U 21132AK  25323.56033890  .00000028  00000+0  37912-4 0  9995
2 50502  87.9204  17.0672 0001248  72.0501 288.0768 13.18674284193957
ONEWEB-0440             
1 50503U 21132AL  25323.54838084  .00000038  00000+0  62686-4 0  9999
2 50503  87.9212  17.0868 0002081 108.6713 251.4645 13.18688549193947
ONEWEB-0450             
1 50504U 21132AM  25323.39018358  .00000105  00000+0  23281-3 0  9999
2 50504  87.9208  17.1413 0002109  95.8820 264.2553 13.18686828193956
ONEWEB-0410             
1 51622U 22012A   25323.25375349  .00000033  00000+0  51704-4 0  9992
2 51622  87.9141  47.5871 0000612 154.2458 205.8705 13.17647831186056
ONEWEB-0411             
1 51623U 22012B   25323.56437903 -.00000040  00000+0 -15024-3 0  9996
2 51623  87.8801  78.0534 0001822  85.3994 274.7342 13.10370464181838
